[{"OBJECT_NAME":"STARLINK-3329","OBJECT_ID":"2022-001AA","EPOCH":"2025-08-07T22:26:21.612768","MEAN_MOTION":15.08840583,"ECCENTRICITY":0.0001348,"INCLINATION":53.2176,"RA_OF_ASC_NODE":48.7022,"ARG_OF_PERICENTER":96.2162,"MEAN_ANOMALY":263.8984,"EPHEMERIS_TYPE":0,"CLASSIFICATION_TYPE":"U","NORAD_CAT_ID":50827,"ELEMENT_SET_NO":999,"REV_AT_EPOCH":19940,"BSTAR":1.6579e-5,"MEAN_MOTION_DOT":-2.4e-7,"MEAN_MOTION_DDOT":0},{"OBJECT_NAME":"STARLINK-3290","OBJECT_ID":"2022-001AB","EPOCH":"2025-08-07T22:06:32.395392","MEAN_MOTION":15.08827008,"ECCENTRICITY":0.0001209,"INCLINATION":53.2175,"RA_OF_ASC_NODE":48.6558,"ARG_OF_PERICENTER":82.7084,"MEAN_ANOMALY":277.4045,"EPHEMERIS_TYPE":0,"CLASSIFICATION_TYPE":"U","NORAD_CAT_ID":50828,"ELEMENT_SET_NO":999,"REV_AT_EPOCH":19941,"BSTAR":0.000103,"MEAN_MOTION_DOT":1.351e-5,"MEAN_MOTION_DDOT":0},{"OBJECT_NAME":"STARLINK-3294","OBJECT_ID":"2022-001AC","EPOCH":"2025-08-07T22:36:58.220928","MEAN_MOTION":15.08849036,"ECCENTRICITY":0.0001711,"INCLINATION":53.2176,"RA_OF_ASC_NODE":48.6676,"ARG_OF_PERICENTER":80.999,"MEAN_ANOMALY":279.1196,"EPHEMERIS_TYPE":0,"CLASSIFICATION_TYPE":"U","NORAD_CAT_ID":50829,"ELEMENT_SET_NO":999,"REV_AT_EPOCH":19940,"BSTAR":4.8994e-5,"MEAN_MOTION_DOT":4.92e-6,"MEAN_MOTION_DDOT":0},{"OBJECT_NAME":"STARLINK-3278","OBJECT_ID":"2022-001AD","EPOCH":"2025-08-07T23:02:07.718784","MEAN_MOTION":15.08844179,"ECCENTRICITY":0.000138,"INCLINATION":53.2175,"RA_OF_ASC_NODE":58.5915,"ARG_OF_PERICENTER":88.8503,"MEAN_ANOMALY":271.2647,"EPHEMERIS_TYPE":0,"CLASSIFICATION_TYPE":"U","NORAD_CAT_ID":50830,"ELEMENT_SET_NO":999,"REV_AT_EPOCH":19927,"BSTAR":5.6872e-5,"MEAN_MOTION_DOT":6.17e-6,"MEAN_MOTION_DDOT":0},{"OBJECT_NAME":"STARLINK-3299","OBJECT_ID":"2022-001AE","EPOCH":"2025-08-07T05:50:07.709856","MEAN_MOTION":15.0884445,"ECCENTRICITY":0.0001155,"INCLINATION":53.2184,"RA_OF_ASC_NODE":51.8768,"ARG_OF_PERICENTER":92.9507,"MEAN_ANOMALY":267.1617,"EPHEMERIS_TYPE":0,"CLASSIFICATION_TYPE":"U","NORAD_CAT_ID":50831,"ELEMENT_SET_NO":999,"REV_AT_EPOCH":19930,"BSTAR":2.171e-5,"MEAN_MOTION_DOT":5.8e-7,"MEAN_MOTION_DDOT":0},{"OBJECT_NAME":"STARLINK-3328","OBJECT_ID":"2022-001AF","EPOCH":"2025-08-07T21:28:07.857696","MEAN_MOTION":15.08843518,"ECCENTRICITY":0.0001414,"INCLINATION":53.2176,"RA_OF_ASC_NODE":58.9324,"ARG_OF_PERICENTER":91.0509,"MEAN_ANOMALY":269.0645,"EPHEMERIS_TYPE":0,"CLASSIFICATION_TYPE":"U","NORAD_CAT_ID":50832,"ELEMENT_SET_NO":999,"REV_AT_EPOCH":19924,"BSTAR":3.7795e-5,"MEAN_MOTION_DOT":3.14e-6,"MEAN_MOTION_DDOT":0},{"OBJECT_NAME":"STARLINK-3331","OBJECT_ID":"2022-001AH","EPOCH":"2025-08-07T21:05:33.355392","MEAN_MOTION":15.0883849,"ECCENTRICITY":0.0001286,"INCLINATION":53.2174,"RA_OF_ASC_NODE":58.9652,"ARG_OF_PERICENTER":86.3877,"MEAN_ANOMALY":273.7262,"EPHEMERIS_TYPE":0,"CLASSIFICATION_TYPE":"U","NORAD_CAT_ID":50834,"ELEMENT_SET_NO":999,"REV_AT_EPOCH":19926,"BSTAR":4.264e-5,"MEAN_MOTION_DOT":3.91e-6,"MEAN_MOTION_DDOT":0},{"OBJECT_NAME":"STARLINK-3310","OBJECT_ID":"2022-001AJ","EPOCH":"2025-08-07T21:10:52.515264","MEAN_MOTION":15.08839416,"ECCENTRICITY":0.000141,"INCLINATION":53.2181,"RA_OF_ASC_NODE":59.0535,"ARG_OF_PERICENTER":87.2324,"MEAN_ANOMALY":272.8829,"EPHEMERIS_TYPE":0,"CLASSIFICATION_TYPE":"U","NORAD_CAT_ID":50835,"ELEMENT_SET_NO":999,"REV_AT_EPOCH":19924,"BSTAR":3.166e-5,"MEAN_MOTION_DOT":2.16e-6,"MEAN_MOTION_DDOT":0},{"OBJECT_NAME":"STARLINK-3330","OBJECT_ID":"2022-001AK","EPOCH":"2025-08-07T22:15:47.573280","MEAN_MOTION":15.08826006,"ECCENTRICITY":0.0001268,"INCLINATION":53.2178,"RA_OF_ASC_NODE":58.5175,"ARG_OF_PERICENTER":97.327,"MEAN_ANOMALY":262.7866,"EPHEMERIS_TYPE":0,"CLASSIFICATION_TYPE":"U","NORAD_CAT_ID":50836,"ELEMENT_SET_NO":999,"REV_AT_EPOCH":19925,"BSTAR":0.00011834,"MEAN_MOTION_DOT":1.595e-5,"MEAN_MOTION_DDOT":0},{"OBJECT_NAME":"STARLINK-3318","OBJECT_ID":"2022-001AL","EPOCH":"2025-08-07T21:49:16.180320","MEAN_MOTION":15.08839064,"ECCENTRICITY":0.0001282,"INCLINATION":53.218,"RA_OF_ASC_NODE":48.8201,"ARG_OF_PERICENTER":87.088,"MEAN_ANOMALY":273.0259,"EPHEMERIS_TYPE":0,"CLASSIFICATION_TYPE":"U","NORAD_CAT_ID":50837,"ELEMENT_SET_NO":999,"REV_AT_EPOCH":19933,"BSTAR":7.3691e-5,"MEAN_MOTION_DOT":8.85e-6,"MEAN_MOTION_DDOT":0},{"OBJECT_NAME":"STARLINK-3322","OBJECT_ID":"2022-001AM","EPOCH":"2025-08-08T04:00:01.999584","MEAN_MOTION":15.58815098,"ECCENTRICITY":0.0006875,"INCLINATION":53.1896,"RA_OF_ASC_NODE":352.9205,"ARG_OF_PERICENTER":291.5051,"MEAN_ANOMALY":176.0315,"EPHEMERIS_TYPE":0,"CLASSIFICATION_TYPE":"U","NORAD_CAT_ID":50838,"ELEMENT_SET_NO":999,"REV_AT_EPOCH":20014,"BSTAR":0.0021235,"MEAN_MOTION_DOT":0.00170294,"MEAN_MOTION_DDOT":0},{"OBJECT_NAME":"STARLINK-3320","OBJECT_ID":"2022-001AN","EPOCH":"2025-08-07T23:49:50.853216","MEAN_MOTION":15.08822894,"ECCENTRICITY":0.0001462,"INCLINATION":53.2178,"RA_OF_ASC_NODE":58.446,"ARG_OF_PERICENTER":96.0612,"MEAN_ANOMALY":264.0547,"EPHEMERIS_TYPE":0,"CLASSIFICATION_TYPE":"U","NORAD_CAT_ID":50839,"ELEMENT_SET_NO":999,"REV_AT_EPOCH":19927,"BSTAR":0.00011154,"MEAN_MOTION_DOT":1.487e-5,"MEAN_MOTION_DDOT":0},{"OBJECT_NAME":"STARLINK-3295","OBJECT_ID":"2022-001AP","EPOCH":"2025-08-07T23:44:31.901568","MEAN_MOTION":15.08837454,"ECCENTRICITY":0.0001327,"INCLINATION":53.2179,"RA_OF_ASC_NODE":58.4581,"ARG_OF_PERICENTER":88.052,"MEAN_ANOMALY":272.0624,"EPHEMERIS_TYPE":0,"CLASSIFICATION_TYPE":"U","NORAD_CAT_ID":50840,"ELEMENT_SET_NO":999,"REV_AT_EPOCH":19928,"BSTAR":1.3394e-5,"MEAN_MOTION_DOT":-7.5e-7,"MEAN_MOTION_DDOT":0},{"OBJECT_NAME":"STARLINK-3300","OBJECT_ID":"2022-001AQ","EPOCH":"2025-08-07T22:25:02.309664","MEAN_MOTION":15.08839832,"ECCENTRICITY":0.0001251,"INCLINATION":53.2177,"RA_OF_ASC_NODE":58.7091,"ARG_OF_PERICENTER":87.2231,"MEAN_ANOMALY":272.8905,"EPHEMERIS_TYPE":0,"CLASSIFICATION_TYPE":"U","NORAD_CAT_ID":50841,"ELEMENT_SET_NO":999,"REV_AT_EPOCH":19929,"BSTAR":6.2208e-5,"MEAN_MOTION_DOT":7.02e-6,"MEAN_MOTION_DDOT":0},{"OBJECT_NAME":"STARLINK-3302","OBJECT_ID":"2022-001AR","EPOCH":"2025-08-07T22:03:52.640064","MEAN_MOTION":15.08828508,"ECCENTRICITY":0.0001406,"INCLINATION":53.2179,"RA_OF_ASC_NODE":58.7743,"ARG_OF_PERICENTER":89.8196,"MEAN_ANOMALY":270.2958,"EPHEMERIS_TYPE":0,"CLASSIFICATION_TYPE":"U","NORAD_CAT_ID":50842,"ELEMENT_SET_NO":999,"REV_AT_EPOCH":19927,"BSTAR":0.00014343,"MEAN_MOTION_DOT":1.995e-5,"MEAN_MOTION_DDOT":0},{"OBJECT_NAME":"STARLINK-3325","OBJECT_ID":"2022-001AS","EPOCH":"2025-08-07T22:35:38.486688","MEAN_MOTION":15.08840917,"ECCENTRICITY":0.0001254,"INCLINATION":53.2174,"RA_OF_ASC_NODE":58.6746,"ARG_OF_PERICENTER":88.4587,"MEAN_ANOMALY":271.6549,"EPHEMERIS_TYPE":0,"CLASSIFICATION_TYPE":"U","NORAD_CAT_ID":50843,"ELEMENT_SET_NO":999,"REV_AT_EPOCH":19919,"BSTAR":5.1482e-5,"MEAN_MOTION_DOT":5.32e-6,"MEAN_MOTION_DDOT":0},{"OBJECT_NAME":"STARLINK-3326","OBJECT_ID":"2022-001AT","EPOCH":"2025-08-07T23:23:19.875840","MEAN_MOTION":15.08827028,"ECCENTRICITY":0.0001367,"INCLINATION":53.2181,"RA_OF_ASC_NODE":58.5231,"ARG_OF_PERICENTER":100.2574,"MEAN_ANOMALY":259.8573,"EPHEMERIS_TYPE":0,"CLASSIFICATION_TYPE":"U","NORAD_CAT_ID":50844,"ELEMENT_SET_NO":999,"REV_AT_EPOCH":19928,"BSTAR":7.9687e-5,"MEAN_MOTION_DOT":9.8e-6,"MEAN_MOTION_DDOT":0}]
