STARLINK-3329           
1 50827U 22001AA  25219.93497237 -.00000024  00000+0  16579-4 0  9998
2 50827  53.2176  48.7022 0001348  96.2162 263.8984 15.08840583199408
STARLINK-3290           
1 50828U 22001AB  25219.92120828  .00001351  00000+0  10300-3 0  9995
2 50828  53.2175  48.6558 0001209  82.7084 277.4045 15.08827008199417
STARLINK-3294           
1 50829U 22001AC  25219.94234052  .00000492  00000+0  48994-4 0  9999
2 50829  53.2176  48.6676 0001711  80.9990 279.1196 15.08849036199404
STARLINK-3278           
1 50830U 22001AD  25219.95981156  .00000617  00000+0  56872-4 0  9999
2 50830  53.2175  58.5915 0001380  88.8503 271.2647 15.08844179199272
STARLINK-3299           
1 50831U 22001AE  25219.24314479  .00000058  00000+0  21710-4 0  9992
2 50831  53.2184  51.8768 0001155  92.9507 267.1617 15.08844450199302
STARLINK-3328           
1 50832U 22001AF  25219.89453539  .00000314  00000+0  37795-4 0  9990
2 50832  53.2176  58.9324 0001414  91.0509 269.0645 15.08843518199249
STARLINK-3331           
1 50834U 22001AH  25219.87885828  .00000391  00000+0  42640-4 0  9990
2 50834  53.2174  58.9652 0001286  86.3877 273.7262 15.08838490199267
STARLINK-3310           
1 50835U 22001AJ  25219.88255226  .00000216  00000+0  31660-4 0  9991
2 50835  53.2181  59.0535 0001410  87.2324 272.8829 15.08839416199240
STARLINK-3330           
1 50836U 22001AK  25219.92763395  .00001595  00000+0  11834-3 0  9999
2 50836  53.2178  58.5175 0001268  97.3270 262.7866 15.08826006199255
STARLINK-3318           
1 50837U 22001AL  25219.90921505  .00000885  00000+0  73691-4 0  9998
2 50837  53.2180  48.8201 0001282  87.0880 273.0259 15.08839064199338
STARLINK-3322           
1 50838U 22001AM  25220.16668981  .00170294  00000+0  21235-2 0  9992
2 50838  53.1896 352.9205 0006875 291.5051 176.0315 15.58815098200143
STARLINK-3320           
1 50839U 22001AN  25219.99294969  .00001487  00000+0  11154-3 0  9990
2 50839  53.2178  58.4460 0001462  96.0612 264.0547 15.08822894199270
STARLINK-3295           
1 50840U 22001AP  25219.98925812 -.00000075  00000+0  13394-4 0  9991
2 50840  53.2179  58.4581 0001327  88.0520 272.0624 15.08837454199280
STARLINK-3300           
1 50841U 22001AQ  25219.93405451  .00000702  00000+0  62208-4 0  9993
2 50841  53.2177  58.7091 0001251  87.2231 272.8905 15.08839832199297
STARLINK-3302           
1 50842U 22001AR  25219.91935926  .00001995  00000+0  14343-3 0  9998
2 50842  53.2179  58.7743 0001406  89.8196 270.2958 15.08828508199270
STARLINK-3325           
1 50843U 22001AS  25219.94141767  .00000532  00000+0  51482-4 0  9996
2 50843  53.2174  58.6746 0001254  88.4587 271.6549 15.08840917199198
STARLINK-3326           
1 50844U 22001AT  25219.97453560  .00000980  00000+0  79687-4 0  9991
2 50844  53.2181  58.5231 0001367 100.2574 259.8573 15.08827028199282
